[{"OBJECT_NAME":"STARLINK-3738","OBJECT_ID":"2022-029AF","EPOCH":"2026-03-09T11:03:31.042080","MEAN_MOTION":15.08843239,"ECCENTRICITY":0.0001561,"INCLINATION":53.217,"RA_OF_ASC_NODE":80.1493,"ARG_OF_PERICENTER":89.9456,"MEAN_ANOMALY":270.1716,"EPHEMERIS_TYPE":0,"CLASSIFICATION_TYPE":"U","NORAD_CAT_ID":52117,"ELEMENT_SET_NO":999,"REV_AT_EPOCH":22076,"BSTAR":0.00012933539,"MEAN_MOTION_DOT":1.771e-5,"MEAN_MOTION_DDOT":0},{"OBJECT_NAME":"CZ-4B DEB","OBJECT_ID":"2006-015E","EPOCH":"2026-03-09T20:34:53.082912","MEAN_MOTION":15.19885806,"ECCENTRICITY":0.00461993,"INCLINATION":98.0565,"RA_OF_ASC_NODE":201.7753,"ARG_OF_PERICENTER":62.4887,"MEAN_ANOMALY":298.1031,"EPHEMERIS_TYPE":0,"CLASSIFICATION_TYPE":"U","NORAD_CAT_ID":29538,"ELEMENT_SET_NO":999,"REV_AT_EPOCH":5389,"BSTAR":0.0022587151,"MEAN_MOTION_DOT":0.00050103,"MEAN_MOTION_DDOT":0}]
